NORAD_CAT_ID,OBJECT_NAME,OBJECT_TYPE,EPOCH,MEAN_MOTION,ECCENTRICITY,INCLINATION,RA_OF_ASC_NODE,ARG_OF_PERICENTER,MEAN_ANOMALY,BSTAR,MEAN_MOTION_DOT,MEAN_MOTION_DDOT,TLE_LINE0,TLE_LINE1,TLE_LINE2,SEMIMAJOR_AXIS,PERIOD,APOGEE,PERIGEE,DECAYED
49167.0,STARLINK-3054,PAYLOAD,2024-03-31 20:59:32,14.9833664,0.0003037,69.9983,279.1001,267.8368,92.2443,0.00012904,1.447e-05,0.0,0 STARLINK-3054,1 49167U 21082AP  24091.87468378  .00001447  00000-0  12904-3 0  9992,2 49167  69.9983 279.1001 0003037 267.8368  92.2443 14.98336640141156,6950.172,96.107,574.148,569.927,0.0
49167.0,STARLINK-3054,PAYLOAD,2024-03-31 22:35:40,14.98336937,0.0003036,69.9983,278.9318,267.8747,92.2064,0.00012931,1.45e-05,0.0,0 STARLINK-3054,1 49167U 21082AP  24091.94144335  .00001450  00000-0  12931-3 0  9998,2 49167  69.9983 278.9318 0003036 267.8747  92.2064 14.98336937141174,6950.171,96.107,574.147,569.926,0.0
49167.0,STARLINK-3054,PAYLOAD,2024-04-01 14:37:02,14.98327313,0.0002947,69.9985,277.2484,268.6939,91.3882,3.9123e-05,3.74e-06,0.0,0 STARLINK-3054,1 49167U 21082AP  24092.60905097  .00000374  00000-0  39123-4 0  9999,2 49167  69.9985 277.2484 0002947 268.6939  91.3882 14.98327313141260,6950.201,96.107,574.114,570.018,0.0
49167.0,STARLINK-3054,PAYLOAD,2024-04-01 19:25:26,14.98326928,0.0002913,69.9987,276.7434,269.478,90.6045,4.2506e-05,4.14e-06,0.0,0 STARLINK-3054,1 49167U 21082AP  24092.80933128  .00000414  00000-0  42506-4 0  9991,2 49167  69.9987 276.7434 0002913 269.4780  90.6045 14.98326928141306,6950.202,96.107,574.092,570.043,0.0
49167.0,STARLINK-3054,PAYLOAD,2024-04-02 13:02:54,14.98335138,0.0002955,69.9985,274.8916,268.997,91.085,6.6242e-05,6.98e-06,0.0,0 STARLINK-3054,1 49167U 21082AP  24093.54368523  .00000698  00000-0  66242-4 0  9991,2 49167  69.9985 274.8916 0002955 268.9970  91.0850 14.98335138141402,6950.177,96.107,574.096,569.988,0.0
49167.0,STARLINK-3054,PAYLOAD,2024-04-02 19:27:26,14.98334522,0.000267,69.9981,274.2179,264.3152,95.7702,9.9419e-05,1.094e-05,0.0,0 STARLINK-3054,1 49167U 21082AP  24093.81072459  .00001094  00000-0  99419-4 0  9994,2 49167  69.9981 274.2179 0002670 264.3152  95.7702 14.98334522141457,6950.179,96.107,573.9,570.188,0.0
49167.0,STARLINK-3054,PAYLOAD,2024-04-02 21:03:34,14.98336083,0.0002882,69.9981,274.0496,266.9097,93.1732,8.7589e-05,9.52e-06,0.0,0 STARLINK-3054,1 49167U 21082AP  24093.87748361  .00000952  00000-0  87589-4 0  9999,2 49167  69.9981 274.0496 0002882 266.9097  93.1732 14.98336083141457,6950.174,96.107,574.042,570.036,0.0
49167.0,STARLINK-3054,PAYLOAD,2024-04-03 13:04:55,14.98330914,0.0003074,69.9983,272.3662,271.4536,88.6271,0.00012311,1.376e-05,0.0,0 STARLINK-3054,1 49167U 21082AP  24094.54508554  .00001376  00000-0  12311-3 0  9993,2 49167  69.9983 272.3662 0003074 271.4536  88.6271 14.98330914141553,6950.19,96.107,574.192,569.919,0.0
49167.0,STARLINK-3054,PAYLOAD,2024-04-03 19:29:27,14.9833244,0.000305,69.9984,271.693,270.3928,89.6882,0.00013598,1.53e-05,0.0,0 STARLINK-3054,1 49167U 21082AP  24094.81212437  .00001530  00000-0  13598-3 0  9995,2 49167  69.9984 271.6930 0003050 270.3928  89.6882 14.98332440141590,6950.185,96.107,574.17,569.931,0.0
49167.0,STARLINK-3054,PAYLOAD,2024-04-04 05:06:16,14.98328607,0.0002751,69.9984,270.6828,270.1832,89.9012,8.6658e-05,9.41e-06,0.0,0 STARLINK-3054,1 49167U 21082AP  24095.21268775  .00000941  00000-0  86658-4 0  9999,2 49167  69.9984 270.6828 0002751 270.1832  89.9012 14.98328607141660,6950.197,96.107,573.974,570.15,0.0
49167.0,STARLINK-3054,PAYLOAD,2024-04-04 14:43:04,14.98330439,0.0003021,69.9985,269.6728,270.5559,89.5254,1.8914e-05,1.33e-06,0.0,0 STARLINK-3054,1 49167U 21082AP  24095.61324734  .00000133  00000-0  18914-4 0  9994,2 49167  69.9985 269.6728 0003021 270.5559  89.5254 14.98330439141715,6950.192,96.107,574.156,569.957,0.0
49167.0,STARLINK-3054,PAYLOAD,2024-04-04 21:07:36,14.98330052,0.0003005,69.9985,268.9991,268.3996,91.6819,7.289e-06,-6e-08,0.0,0 STARLINK-3054,1 49167U 21082AP  24095.88028741 -.00000006  00000-0  72890-5 0  9996,2 49167  69.9985 268.9991 0003005 268.3996  91.6819 14.98330052141757,6950.193,96.107,574.146,569.969,0.0
49167.0,STARLINK-3054,PAYLOAD,2024-04-05 05:08:16,14.983334,0.0003096,69.9985,268.1576,268.9504,91.1301,4.971e-05,5e-06,0.0,0 STARLINK-3054,1 49167U 21082AP  24096.21408371  .00000500  00000-0  49710-4 0  9997,2 49167  69.9985 268.1576 0003096 268.9504  91.1301 14.98333400141817,6950.182,96.107,574.199,569.896,0.0
49167.0,STARLINK-3054,PAYLOAD,2024-04-05 14:45:04,14.98336514,0.0003105,69.9984,267.1471,268.7382,91.3421,7.4473e-05,7.96e-06,0.0,0 STARLINK-3054,1 49167U 21082AP  24096.61463987  .00000796  00000-0  74473-4 0  9996,2 49167  69.9984 267.1471 0003105 268.7382  91.3421 14.98336514141861,6950.173,96.107,574.196,569.88,0.0
49167.0,STARLINK-3054,PAYLOAD,2024-04-05 21:09:36,14.98338336,0.0003131,69.9985,266.4743,269.7553,90.3248,9.0467e-05,9.87e-06,0.0,0 STARLINK-3054,1 49167U 21082AP  24096.88167737  .00000987  00000-0  90467-4 0  9992,2 49167  69.9985 266.4743 0003131 269.7553  90.3248 14.98338336141901,6950.167,96.106,574.208,569.856,0.0
49167.0,STARLINK-3054,PAYLOAD,2024-04-06 05:10:17,14.98332347,0.0003136,69.9986,265.6324,269.8549,90.2251,5.4886e-05,5.62e-06,0.0,0 STARLINK-3054,1 49167U 21082AP  24097.21548105  .00000562  00000-0  54886-4 0  9996,2 49167  69.9986 265.6324 0003136 269.8549  90.2251 14.98332347141964,6950.186,96.107,574.23,569.871,0.0
49167.0,STARLINK-3054,PAYLOAD,2024-04-06 09:58:41,14.98330813,0.0003153,69.9985,265.1275,269.8721,90.2077,7.8019e-05,8.38e-06,0.0,0 STARLINK-3054,1 49167U 21082AP  24097.41576131  .00000838  00000-0  78019-4 0  9998,2 49167  69.9985 265.1275 0003153 269.8721  90.2077 14.98330813141988,6950.19,96.107,574.247,569.864,0.0
49167.0,STARLINK-3054,PAYLOAD,2024-04-06 17:59:22,14.98330824,0.0003197,69.9985,264.286,270.1015,89.9778,5.3309e-05,5.43e-06,0.0,0 STARLINK-3054,1 49167U 21082AP  24097.74956210  .00000543  00000-0  53309-4 0  9992,2 49167  69.9985 264.2860 0003197 270.1015  89.9778 14.98330824142039,6950.19,96.107,574.277,569.833,0.0
49167.0,STARLINK-3054,PAYLOAD,2024-04-07 10:00:43,14.98328977,0.0003117,69.9988,262.6027,270.6883,89.3919,-2.8332e-05,-4.31e-06,0.0,0 STARLINK-3054,1 49167U 21082AP  24098.41716590 -.00000431  00000-0 -28332-4 0  9998,2 49167  69.9988 262.6027 0003117 270.6883  89.3919 14.98328977142148,6950.196,96.107,574.227,569.895,0.0
49167.0,STARLINK-3054,PAYLOAD,2024-04-07 21:13:39,14.98329648,0.000318,69.9987,261.4243,271.0131,89.0664,-4.21e-05,-5.95e-06,0.0,0 STARLINK-3054,1 49167U 21082AP  24098.88448607 -.00000595  00000-0 -42100-4 0  9990,2 49167  69.9987 261.4243 0003180 271.0131  89.0664 14.98329648142202,6950.194,96.107,574.269,569.849,0.0
49167.0,STARLINK-3054,PAYLOAD,2024-04-08 10:02:43,14.98329906,0.0003396,69.998,260.0779,271.7392,88.3378,0.00010719,1.186e-05,0.0,0 STARLINK-3054,1 49167U 21082AP  24099.41856213  .00001186  00000-0  10719-3 0  9991,2 49167  69.9980 260.0779 0003396 271.7392  88.3378 14.98329906142299,6950.193,96.107,574.418,569.698,0.0
49167.0,STARLINK-3054,PAYLOAD,2024-04-08 16:27:15,14.98332728,0.0003413,69.9979,259.4046,271.4284,88.6484,0.00013198,1.482e-05,0.0,0 STARLINK-3054,1 49167U 21082AP  24099.68559993  .00001482  00000-0  13198-3 0  9998,2 49167  69.9979 259.4046 0003413 271.4284  88.6484 14.98332728142324,6950.184,96.107,574.422,569.677,0.0
49167.0,STARLINK-3054,PAYLOAD,2024-04-09 10:04:44,14.98328798,0.0002976,70.0012,257.5531,269.3339,90.7479,9.8077e-05,1.077e-05,0.0,0 STARLINK-3054,1 49167U 21082AP  24100.41996309  .00001077  00000-0  98077-4 0  9998,2 49167  70.0012 257.5531 0002976 269.3339  90.7479 14.98328798142446,6950.197,96.107,574.13,569.993,0.0
49167.0,STARLINK-3054,PAYLOAD,2024-04-09 21:17:41,14.98329762,0.000299,70.0014,256.375,269.1553,90.9264,9.2451e-05,1.01e-05,0.0,0 STARLINK-3054,1 49167U 21082AP  24100.88728288  .00001010  00000-0  92451-4 0  9995,2 49167  70.0014 256.3750 0002990 269.1553  90.9264 14.98329762142503,6950.194,96.107,574.137,569.981,0.0
49167.0,STARLINK-3054,PAYLOAD,2024-04-10 10:06:45,14.98335297,0.000295,70.0007,255.0288,270.3134,89.7687,4.2866e-06,-4.2e-07,0.0,0 STARLINK-3054,1 49167U 21082AP  24101.42136104 -.00000042  00000-0  42866-5 0  9997,2 49167  70.0007 255.0288 0002950 270.3134  89.7687 14.98335297142596,6950.177,96.107,574.092,569.991,0.0
49167.0,STARLINK-3054,PAYLOAD,2024-04-10 19:43:33,14.9833446,0.0002972,70.0006,254.0189,270.1816,89.9002,1.3219e-05,6.5e-07,0.0,0 STARLINK-3054,1 49167U 21082AP  24101.82191994  .00000065  00000-0  13219-4 0  9992,2 49167  70.0006 254.0189 0002972 270.1816  89.9002 14.98334460142643,6950.179,96.107,574.11,569.979,0.0
49167.0,STARLINK-3054,PAYLOAD,2024-04-11 13:21:02,14.98328789,0.0003019,69.9997,252.1671,270.042,90.0393,3.7725e-05,3.57e-06,0.0,0 STARLINK-3054,1 49167U 21082AP  24102.55628238  .00000357  00000-0  37725-4 0  9991,2 49167  69.9997 252.1671 0003019 270.0420  90.0393 14.98328789142763,6950.197,96.107,574.16,569.963,0.0
49167.0,STARLINK-3054,PAYLOAD,2024-04-11 19:45:34,14.98330177,0.0003009,70.0,251.4945,270.8381,89.2433,4.8417e-05,4.85e-06,0.0,0 STARLINK-3054,1 49167U 21082AP  24102.82332138  .00000485  00000-0  48417-4 0  9994,2 49167  70.0000 251.4945 0003009 270.8381  89.2433 14.98330177142792,6950.192,96.107,574.149,569.966,0.0
49167.0,STARLINK-3054,PAYLOAD,2024-04-12 13:23:03,14.98332625,0.0003108,69.9999,249.6418,271.7287,88.3516,6.383e-05,6.69e-06,0.0,0 STARLINK-3054,1 49167U 21082AP  24103.55767968  .00000669  00000-0  63830-4 0  9998,2 49167  69.9999 249.6418 0003108 271.7287  88.3516 14.98332625142900,6950.185,96.107,574.21,569.89,0.0
49167.0,STARLINK-3054,PAYLOAD,2024-04-12 14:59:11,14.98333265,0.0003084,70.0,249.4735,271.5173,88.5633,6.6766e-05,7.04e-06,0.0,0 STARLINK-3054,1 49167U 21082AP  24103.62443919  .00000704  00000-0  66766-4 0  9994,2 49167  70.0000 249.4735 0003084 271.5173  88.5633 14.98333265142926,6950.183,96.107,574.191,569.904,0.0
